{"type":"FeatureCollection","provenance":{"geometry":"IBGE — API de malhas territoriais v3, intrarregiao=UF, qualidade=minima","url":"https://servicodados.ibge.gov.br/api/v3/malhas/paises/BR?formato=application/vnd.geo+json&qualidade=minima&intrarregiao=UF","classification":"CCEE/ONS — UF→submercado. SE/CO inclui AC e RO (subsistema Acre-Rondônia). RR não pertence a submercado nenhum na definição CCEE documentada e fica fora dos quatro polígonos.","operation":"turf.union por submercado (dissolução topológica). Nenhum vértice inventado.","fetched":"2026-07-26"},"features":[{"type":"Feature","properties":{"id":"norte","nome":"Norte","sigla":"N","ufsIbge":["13","15","16","17","21"]},"geometry":{"type":"MultiPolygon","coordinates":[[[[-73.8016,-7.1118],[-73.7382,-7.1347],[-72.9003,-7.4377],[-72.5848,-7.552],[-72.1695,-7.6006],[-71.9454,-7.6268],[-71.3817,-7.6923],[-71.0885,-7.7263],[-70.5152,-7.7924],[-70.055,-7.8451],[-69.8017,-8.0611],[-69.4443,-8.3665],[-69.213,-8.5644],[-68.9213,-8.8143],[-68.6472,-9.0494],[-68.2199,-9.2428],[-67.9768,-9.3527],[-67.5169,-9.5609],[-67.326,-9.5923],[-67.3255,-9.5925],[-67.135,-9.6759],[-66.8103,-9.818],[-66.6094,-9.6649],[-66.5006,-9.6336],[-66.3924,-9.5005],[-66.4089,-9.4069],[-66.1736,-9.4344],[-65.9703,-9.4132],[-65.8251,-9.5301],[-65.73,-9.5631],[-65.6794,-9.4514],[-65.5881,-9.4138],[-65.4321,-9.4586],[-65.4402,-9.3117],[-65.3935,-9.3396],[-65.2704,-9.2636],[-65.2118,-9.279],[-65.1429,-9.4468],[-65.0535,-9.4021],[-64.9197,-9.2203],[-64.9399,-9.1246],[-64.8078,-8.9856],[-64.6111,-9.0165],[-64.5789,-8.9884],[-64.3234,-8.9289],[-64.3113,-8.9965],[-64.1418,-8.9451],[-64.1431,-8.743],[-64.0355,-8.6936],[-63.9232,-8.5593],[-63.9732,-8.4784],[-63.9441,-8.3312],[-63.8708,-8.2888],[-63.7912,-8.3332],[-63.7486,-8.2079],[-63.6218,-8.0296],[-63.6212,-7.9765],[-62.8666,-7.9759],[-62.6923,-8.0929],[-62.655,-8.2291],[-62.5619,-8.284],[-62.5185,-8.3847],[-62.4655,-8.3397],[-62.3608,-8.3985],[-62.3661,-8.4936],[-62.2895,-8.6391],[-62.2689,-8.5758],[-62.1884,-8.5906],[-62.125,-8.8017],[-62.0311,-8.7997],[-61.9902,-8.8727],[-61.903,-8.8629],[-61.8365,-8.7327],[-61.7133,-8.6879],[-61.5831,-8.7987],[-60.4202,-8.7966],[-59.1274,-8.8033],[-58.4419,-8.7987],[-58.3284,-8.7122],[-58.4373,-8.7034],[-58.3895,-8.5948],[-58.4178,-8.4895],[-58.3149,-8.3231],[-58.2864,-8.0885],[-58.3782,-7.8274],[-58.2941,-7.7715],[-58.2022,-7.6209],[-58.2131,-7.4585],[-58.1371,-7.3561],[-58.0614,-7.3952],[-57.8967,-7.6779],[-57.8319,-7.9615],[-57.6417,-8.2199],[-57.6866,-8.407],[-57.6334,-8.5268],[-57.5929,-8.7565],[-57.4175,-8.7926],[-57.4162,-8.859],[-57.2038,-8.9208],[-57.0392,-9.0983],[-57.0598,-9.1824],[-56.9955,-9.2338],[-56.8201,-9.2463],[-56.7543,-9.4064],[-56.6719,-9.3674],[-56.2723,-9.4008],[-56.1565,-9.4104],[-55.8672,-9.4343],[-54.9956,-9.5053],[-54.6135,-9.5358],[-54.1068,-9.5719],[-53.5891,-9.611],[-53.1334,-9.6452],[-52.6193,-9.6823],[-52.2567,-9.7077],[-51.3043,-9.7729],[-50.846,-9.8006],[-50.2248,-9.8412],[-50.3026,-10.0354],[-50.3983,-10.1555],[-50.4181,-10.3546],[-50.4737,-10.4049],[-50.5414,-10.6093],[-50.6033,-10.6598],[-50.6035,-10.6609],[-50.5706,-10.7525],[-50.6326,-10.9319],[-50.6095,-11.0674],[-50.6999,-11.3131],[-50.7389,-11.5445],[-50.6701,-11.5816],[-50.7173,-11.7274],[-50.6393,-11.8846],[-50.6822,-11.9909],[-50.6814,-12.2169],[-50.6437,-12.223],[-50.6236,-12.4553],[-50.6839,-12.6481],[-50.6227,-12.8197],[-50.511,-12.8609],[-50.4342,-12.6494],[-50.3055,-12.4924],[-50.1418,-12.3954],[-50.2152,-12.482],[-50.1934,-12.5638],[-50.2448,-12.5975],[-50.3108,-12.7916],[-50.1852,-12.8936],[-49.9088,-12.9751],[-49.3683,-13.2723],[-49.3556,-13.1561],[-49.2377,-12.8838],[-49.1177,-12.7901],[-48.9762,-12.9579],[-48.8798,-12.8171],[-48.8703,-12.8033],[-48.6447,-13.011],[-48.5759,-13.1242],[-48.5801,-13.3133],[-48.5161,-13.1391],[-48.4589,-13.2804],[-48.1437,-13.1525],[-48.1699,-13.3003],[-48.0745,-13.239],[-47.9668,-13.315],[-47.7982,-13.329],[-47.6797,-13.4682],[-47.6223,-13.3687],[-47.6651,-13.2184],[-47.5687,-13.1169],[-47.3929,-13.2624],[-46.8548,-13.0676],[-46.7506,-12.9692],[-46.6354,-12.9699],[-46.4546,-12.9712],[-46.4459,-12.9358],[-46.418,-12.8224],[-46.3644,-12.9907],[-46.113,-12.918],[-46.328,-12.9547],[-46.2824,-12.7639],[-46.2967,-12.5757],[-46.1983,-12.5041],[-46.1982,-12.504],[-46.2666,-12.5067],[-46.29,-12.377],[-46.3716,-12.3498],[-46.3712,-12.0997],[-46.3889,-12.0488],[-46.3128,-11.9411],[-46.381,-11.8631],[-46.3376,-11.8131],[-46.3786,-11.7486],[-46.3078,-11.6866],[-46.3617,-11.631],[-46.1445,-11.6243],[-46.0809,-11.624],[-46.1128,-11.606],[-46.3504,-11.5062],[-46.4393,-11.521],[-46.5599,-11.3716],[-46.553,-11.2654],[-46.3416,-10.939],[-46.2673,-10.9348],[-46.2605,-10.812],[-46.2062,-10.8005],[-46.1276,-10.6206],[-45.8202,-10.4561],[-45.7982,-10.3232],[-45.6993,-10.2586],[-45.7235,-10.1554],[-45.744,-10.24],[-45.8967,-10.2643],[-45.9109,-10.3711],[-46.0124,-10.2507],[-45.9463,-10.2585],[-45.8425,-9.9395],[-45.866,-9.8716],[-45.8297,-9.6799],[-45.8419,-9.5629],[-45.7911,-9.4828],[-45.8937,-9.3426],[-45.9362,-9.0383],[-45.9951,-8.927],[-45.9384,-8.7868],[-45.8408,-8.7158],[-45.7064,-8.3876],[-45.6636,-8.2505],[-45.5837,-8.1569],[-45.5208,-7.8873],[-45.5383,-7.8616],[-45.4558,-7.67],[-45.3407,-7.5818],[-45.0856,-7.5023],[-44.9893,-7.4824],[-44.9853,-7.481],[-44.8173,-7.3615],[-44.6904,-7.3958],[-44.5653,-7.2287],[-44.3861,-7.1209],[-44.3129,-7.1186],[-44.276,-7.0581],[-44.2493,-7.0005],[-44.1163,-6.8058],[-43.9305,-6.7711],[-43.7538,-6.7035],[-43.6375,-6.7196],[-43.4886,-6.8215],[-43.4546,-6.846],[-43.3912,-6.8342],[-43.2479,-6.7677],[-42.9928,-6.7487],[-42.9151,-6.648],[-42.8864,-6.5046],[-42.8473,-6.2782],[-42.9784,-6.1385],[-43.0491,-6.1016],[-43.0964,-5.9097],[-43.0751,-5.865],[-43.0949,-5.6149],[-43.0042,-5.5427],[-42.9684,-5.4535],[-42.8158,-5.318],[-42.799,-5.1897],[-42.8898,-4.8947],[-42.8927,-4.888],[-42.9531,-4.6874],[-42.8501,-4.498],[-42.9486,-4.3855],[-42.9643,-4.3607],[-42.9864,-4.2205],[-42.9428,-4.1673],[-42.856,-4.0794],[-42.7906,-3.9791],[-42.7217,-3.8844],[-42.6715,-3.7916],[-42.6835,-3.6945],[-42.6331,-3.6321],[-42.6167,-3.6107],[-42.5627,-3.5594],[-42.4964,-3.4459],[-42.4703,-3.4838],[-42.3999,-3.4748],[-42.2727,-3.4447],[-42.2017,-3.4313],[-42.1258,-3.3464],[-42.1236,-3.2668],[-41.9856,-3.2225],[-41.9798,-3.216],[-41.8691,-3.0603],[-41.7967,-2.9606],[-41.8344,-2.9156],[-41.826,-2.7573],[-41.8072,-2.73],[-42.043,-2.7296],[-42.0713,-2.687],[-42.2226,-2.6922],[-42.2636,-2.7579],[-42.4876,-2.7033],[-42.6415,-2.6253],[-43.0148,-2.4567],[-43.2374,-2.3587],[-43.3116,-2.3387],[-43.3781,-2.3422],[-43.4833,-2.3853],[-43.4617,-2.4864],[-43.5374,-2.4219],[-43.5786,-2.5061],[-43.6968,-2.5149],[-43.7412,-2.4351],[-43.6446,-2.4013],[-43.5943,-2.2827],[-43.7204,-2.2914],[-43.7619,-2.4187],[-43.8381,-2.4167],[-43.8502,-2.51],[-43.9312,-2.5616],[-44.0788,-2.7438],[-44.1484,-2.7681],[-44.2658,-2.7604],[-44.1757,-2.7021],[-44.0928,-2.5747],[-44.0362,-2.5567],[-44.0523,-2.4661],[-44.0318,-2.4063],[-44.1738,-2.458],[-44.1837,-2.461],[-44.2208,-2.4739],[-44.3046,-2.4875],[-44.41,-2.7992],[-44.4248,-2.9439],[-44.4955,-3.026],[-44.5481,-3.0451],[-44.5916,-3.0409],[-44.6625,-3.0129],[-44.652,-2.893],[-44.6501,-2.805],[-44.5553,-2.5965],[-44.358,-2.3405],[-44.4626,-2.145],[-44.6444,-2.2963],[-44.6777,-2.2805],[-44.4973,-2.0253],[-44.5777,-2.0292],[-44.4821,-1.9883],[-44.5517,-1.8885],[-44.5341,-1.8222],[-44.6153,-1.7633],[-44.7594,-1.783],[-44.7016,-1.725],[-44.7998,-1.7043],[-44.6363,-1.6166],[-44.7234,-1.5567],[-44.8537,-1.6175],[-44.8899,-1.6036],[-44.8604,-1.4113],[-44.9531,-1.56],[-45.0082,-1.4856],[-45.196,-1.4881],[-45.2682,-1.5986],[-45.3238,-1.597],[-45.3086,-1.3329],[-45.4755,-1.4798],[-45.5144,-1.3081],[-45.6108,-1.2746],[-45.6899,-1.2736],[-45.7813,-1.1926],[-45.7891,-1.1873],[-45.7965,-1.1826],[-45.8467,-1.213],[-45.8539,-1.0528],[-45.954,-1.2022],[-45.9946,-1.053],[-46.1041,-1.202],[-46.0634,-1.1062],[-46.0946,-1.0206],[-46.1935,-1.0796],[-46.2076,-0.8856],[-46.3374,-1.0215],[-46.4691,-1.0253],[-46.4958,-0.8722],[-46.5313,-0.953],[-46.6364,-0.9691],[-46.6293,-0.8008],[-46.796,-0.8705],[-46.836,-0.7467],[-46.9426,-0.8593],[-46.9907,-0.7119],[-47.0637,-0.7946],[-47.092,-0.6741],[-47.1605,-0.7623],[-47.1747,-0.6729],[-47.2619,-0.6478],[-47.3863,-0.6047],[-47.426,-0.6573],[-47.4744,-0.5923],[-47.4816,-0.7391],[-47.5898,-0.5761],[-47.6081,-0.6978],[-47.6315,-0.7063],[-47.6327,-0.6021],[-47.7562,-0.6063],[-47.9171,-0.5664],[-47.977,-0.6862],[-48.0514,-0.6595],[-48.1416,-0.7542],[-48.1716,-0.8164],[-48.2938,-0.9197],[-48.4096,-0.9058],[-48.4747,-0.8739],[-48.5061,-0.7509],[-48.4411,-0.4122],[-48.3746,-0.3031],[-48.4288,-0.2272],[-48.7437,-0.2499],[-48.9179,-0.2296],[-49.1646,-0.1303],[-49.3826,-0.1915],[-49.4386,-0.1265],[-49.3589,-0.0259],[-49.397,0.0622],[-49.6322,0.0749],[-49.6996,0.1505],[-49.6333,0.2414],[-49.4886,0.3342],[-49.5732,0.4166],[-49.8892,0.3225],[-50.1678,0.3403],[-50.1727,0.3976],[-50.0364,0.5342],[-50.0726,0.6358],[-50.2261,0.6962],[-49.9884,0.8748],[-49.989,0.9395],[-49.8898,1.0136],[-49.9016,1.2403],[-49.8817,1.5001],[-49.9206,1.6879],[-50.1587,1.8112],[-50.4237,1.8045],[-50.684,2.1437],[-50.7942,2.4985],[-50.827,2.5128],[-50.8873,2.7462],[-50.9542,2.8372],[-51.0328,3.2137],[-51.1093,3.4506],[-51.0818,3.5595],[-51.0807,3.8848],[-51.1508,3.9138],[-51.2164,4.15],[-51.2834,4.2503],[-51.4859,4.4372],[-51.6376,4.5088],[-51.6768,4.3327],[-51.6231,4.2256],[-51.6561,4.0539],[-51.7823,3.9641],[-51.7986,3.887],[-51.9726,3.7055],[-51.9888,3.6269],[-52.2336,3.2407],[-52.3529,3.1265],[-52.3269,3.0805],[-52.4778,2.7818],[-52.5521,2.52],[-52.6606,2.374],[-52.8422,2.2912],[-52.9043,2.1885],[-53.0845,2.2127],[-53.2792,2.186],[-53.2295,2.2624],[-53.3233,2.3471],[-53.4731,2.2567],[-53.7488,2.3128],[-53.7672,2.3789],[-53.9424,2.2424],[-54.1891,2.1788],[-54.4366,2.2099],[-54.6017,2.3372],[-54.6921,2.3614],[-54.744,2.4715],[-54.8723,2.4337],[-54.9543,2.5837],[-55.1031,2.5257],[-55.1729,2.5594],[-55.3203,2.5155],[-55.3854,2.4185],[-55.4998,2.4433],[-55.7077,2.4032],[-55.718,2.4021],[-55.9347,2.5335],[-56.0507,2.3351],[-56.139,2.2658],[-56.043,2.2279],[-55.9669,2.0885],[-55.9039,1.8881],[-55.999,1.8314],[-56.1527,1.8908],[-56.2415,1.8797],[-56.4371,1.9518],[-56.5798,1.906],[-56.721,1.9259],[-56.7881,1.8544],[-56.9198,1.9304],[-57.0008,1.9074],[-57.0868,2.0265],[-57.253,1.9485],[-57.3044,1.9975],[-57.4335,1.906],[-57.451,1.8064],[-57.5772,1.6904],[-57.7924,1.7267],[-57.7977,1.6873],[-57.9902,1.6585],[-58.0043,1.5031],[-58.1295,1.499],[-58.1607,1.5602],[-58.3172,1.5685],[-58.3719,1.4816],[-58.5088,1.463],[-58.458,1.3715],[-58.4963,1.268],[-58.7105,1.2899],[-58.7252,1.2188],[-58.8252,1.1713],[-58.8955,1.2277],[-58.8955,0.2635],[-60.038,0.2635],[-60.2276,-0.1217],[-60.3943,-0.5508],[-60.3115,-0.7185],[-60.4978,-0.7807],[-60.5362,-0.8695],[-60.6691,-0.8879],[-60.762,-0.8486],[-60.8152,-0.6903],[-60.9336,-0.5479],[-61.2231,-0.4999],[-61.234,-0.5619],[-61.4581,-0.6547],[-61.5356,-0.7544],[-61.5808,-0.978],[-61.5429,-1.0622],[-61.6288,-1.3015],[-61.6191,-1.3948],[-61.5383,-1.4334],[-61.4747,-1.579],[-61.605,-1.4481],[-61.798,-1.3806],[-61.8399,-1.4011],[-61.8966,-1.3954],[-62.0175,-1.1417],[-62.1255,-1.0373],[-62.2591,-0.9759],[-62.3958,-0.8204],[-62.5102,-0.759],[-62.4866,-0.6815],[-62.357,-0.7024],[-62.2867,-0.6324],[-62.3184,-0.5446],[-62.1886,-0.3223],[-62.2481,-0.2963],[-62.2416,-0.1705],[-62.3198,-0.0963],[-62.3259,-0.0029],[-62.4093,0.0751],[-62.4527,0.2074],[-62.4464,0.3791],[-62.5187,0.4437],[-62.5383,0.6752],[-62.463,0.7769],[-62.4427,0.9585],[-62.4716,1.0863],[-62.5211,1.0838],[-62.64,1.4382],[-62.7363,1.5296],[-62.8053,1.5913],[-62.7286,1.7],[-62.7033,1.9338],[-62.8386,2.0164],[-63.0238,2.0147],[-63.1376,2.1611],[-63.2764,2.1544],[-63.3721,2.2119],[-63.3977,2.1469],[-63.5619,2.1324],[-63.8297,1.9682],[-63.9755,1.9913],[-64.0619,1.9307],[-64.0652,1.676],[-64.3261,1.436],[-64.4,1.3949],[-64.3975,1.5268],[-64.5533,1.4168],[-64.5908,1.3374],[-64.7639,1.2308],[-64.823,1.2785],[-64.9516,1.2315],[-65.0222,1.1149],[-65.1551,1.125],[-65.165,0.9505],[-65.3291,0.9316],[-65.443,0.6899],[-65.5405,0.6488],[-65.5914,0.7216],[-65.5003,0.8424],[-65.5856,1.0089],[-65.7394,0.9996],[-65.9254,0.8913],[-65.9644,0.8095],[-66.1511,0.7445],[-66.213,0.7806],[-66.3165,0.7361],[-66.3185,0.755],[-66.8569,1.2302],[-67.0882,1.1669],[-67.0723,1.4426],[-67.0974,1.7326],[-67.1571,1.8488],[-67.2781,1.8757],[-67.3893,2.244],[-67.5219,2.1703],[-67.6198,2.0237],[-67.7794,2.0311],[-67.9413,1.8307],[-68.0875,1.9013],[-68.1407,1.9848],[-68.2433,1.9267],[-68.2669,1.8273],[-68.1568,1.7316],[-69.3913,1.7296],[-69.5344,1.777],[-69.6538,1.7181],[-69.8458,1.7077],[-69.8466,1.0779],[-69.7026,1.1183],[-69.7035,1.075],[-69.3219,1.0884],[-69.2457,1.0465],[-69.1401,0.8838],[-69.1876,0.7469],[-69.1157,0.644],[-69.3498,0.6141],[-69.481,0.735],[-69.6281,0.6275],[-69.687,0.6632],[-69.8235,0.5911],[-70.0465,0.5621],[-70.0464,0.0683],[-70.0574,-0.1868],[-69.9232,-0.3315],[-69.8449,-0.3458],[-69.6111,-0.5135],[-69.5643,-0.6398],[-69.6264,-0.7497],[-69.5274,-0.922],[-69.4217,-1.0004],[-69.3984,-1.1444],[-69.4297,-1.3873],[-69.6134,-2.4402],[-69.8376,-3.6866],[-69.9507,-4.2693],[-70.0454,-4.3738],[-70.1328,-4.282],[-70.2004,-4.356],[-70.3079,-4.2468],[-70.2932,-4.1599],[-70.5221,-4.1373],[-70.6163,-4.1934],[-70.759,-4.1587],[-70.865,-4.2533],[-70.938,-4.3832],[-71.2665,-4.3845],[-71.2617,-4.4247],[-71.5023,-4.4386],[-71.6169,-4.5289],[-71.7788,-4.4847],[-71.9151,-4.5307],[-71.9476,-4.609],[-72.2421,-4.7804],[-72.3722,-4.8077],[-72.4146,-4.9009],[-72.5971,-4.9827],[-72.8871,-5.1616],[-72.8701,-5.2994],[-72.9638,-5.4981],[-72.9618,-5.6546],[-73.151,-5.8634],[-73.2502,-6.1449],[-73.1089,-6.41],[-73.213,-6.5778],[-73.3545,-6.5949],[-73.6428,-6.7621],[-73.7546,-6.9419],[-73.7268,-7.0225],[-73.8016,-7.1118]]],[[[-50.5212,2.0054],[-50.4549,1.8885],[-50.3174,1.9475],[-50.3608,2.0574],[-50.4501,2.1092],[-50.5212,2.0054]]],[[[-50.5088,2.1852],[-50.5077,2.0999],[-50.4226,2.1185],[-50.5088,2.1852]]],[[[-45.0288,-1.318],[-44.9891,-1.4016],[-44.8669,-1.3287],[-44.9662,-1.2711],[-45.0288,-1.318]]],[[[-44.6381,-2.981],[-44.5609,-3.0225],[-44.479,-2.9579],[-44.4815,-2.7266],[-44.5862,-2.8147],[-44.6381,-2.981]]]]}},{"type":"Feature","properties":{"id":"nordeste","nome":"Nordeste","sigla":"NE","ufsIbge":["22","23","24","25","26","27","28","29"]},"geometry":{"type":"Polygon","coordinates":[[[-46.5599,-11.3716],[-46.4393,-11.521],[-46.3504,-11.5062],[-46.1128,-11.606],[-46.0809,-11.624],[-46.1445,-11.6243],[-46.3617,-11.631],[-46.3078,-11.6866],[-46.3786,-11.7486],[-46.3376,-11.8131],[-46.381,-11.8631],[-46.3128,-11.9411],[-46.3889,-12.0488],[-46.3712,-12.0997],[-46.3716,-12.3498],[-46.29,-12.377],[-46.2666,-12.5067],[-46.1982,-12.504],[-46.1983,-12.5041],[-46.2967,-12.5757],[-46.2824,-12.7639],[-46.328,-12.9547],[-46.113,-12.918],[-46.2987,-13.0638],[-46.3277,-13.2529],[-46.2925,-13.3169],[-46.1032,-13.2575],[-46.0683,-13.2954],[-46.2485,-13.436],[-46.209,-13.4656],[-46.2475,-13.5787],[-46.1627,-13.6036],[-46.2357,-13.7081],[-46.2642,-13.9474],[-46.2121,-14.0101],[-46.227,-14.049],[-46.1841,-14.1569],[-46.0601,-14.2319],[-45.9072,-14.3552],[-46.0001,-14.4466],[-45.9889,-14.6558],[-46.021,-14.6699],[-46.0251,-14.6781],[-46.0394,-14.8753],[-46.0376,-14.8747],[-45.9661,-14.9656],[-46.0771,-15.2647],[-45.9717,-15.1539],[-45.7398,-15.1204],[-45.6169,-15.0141],[-45.3057,-14.8337],[-45.2056,-14.7447],[-45.0958,-14.753],[-45.0403,-14.6805],[-44.877,-14.5992],[-44.8332,-14.4998],[-44.7414,-14.4671],[-44.5572,-14.337],[-44.4118,-14.2816],[-44.296,-14.2532],[-44.0457,-14.2838],[-43.9696,-14.274],[-43.7832,-14.3392],[-43.8184,-14.3877],[-43.8812,-14.5624],[-43.8835,-14.6525],[-43.7122,-14.7153],[-43.531,-14.8154],[-43.5308,-14.8155],[-43.487,-14.7903],[-43.3112,-14.6697],[-43.175,-14.6511],[-42.9389,-14.708],[-42.8721,-14.7647],[-42.6187,-14.9397],[-42.5157,-14.9829],[-42.479,-15.0142],[-42.2776,-15.1137],[-42.2656,-15.125],[-42.1733,-15.086],[-42.0485,-15.1707],[-41.9534,-15.1757],[-41.8103,-15.1014],[-41.8023,-15.1003],[-41.7599,-15.138],[-41.4561,-15.4103],[-41.3643,-15.493],[-41.3619,-15.495],[-41.3422,-15.6386],[-41.3302,-15.7433],[-41.1425,-15.772],[-40.8168,-15.6476],[-40.7677,-15.7141],[-40.7006,-15.6673],[-40.6449,-15.7289],[-40.5198,-15.7976],[-40.45,-15.7616],[-40.425,-15.8057],[-40.2357,-15.8035],[-40.1275,-15.9071],[-40.0044,-16.0018],[-39.9148,-16],[-39.8568,-16.1138],[-39.9178,-16.2843],[-40.0172,-16.3478],[-40.1102,-16.4493],[-40.1579,-16.5795],[-40.2755,-16.5734],[-40.3132,-16.6786],[-40.307,-16.6968],[-40.2816,-16.9012],[-40.4013,-16.8902],[-40.4077,-16.8987],[-40.4336,-16.8874],[-40.4923,-16.8874],[-40.5787,-17.1496],[-40.5478,-17.2837],[-40.6047,-17.3562],[-40.5195,-17.4474],[-40.483,-17.4885],[-40.4145,-17.6101],[-40.3441,-17.6156],[-40.2402,-17.7349],[-40.2237,-17.7343],[-40.2119,-17.8949],[-40.2224,-17.9804],[-40.2204,-17.9816],[-39.9118,-18.179],[-39.6678,-18.3372],[-39.6354,-18.2323],[-39.4912,-17.9979],[-39.2575,-17.828],[-39.1373,-17.685],[-39.1917,-17.446],[-39.2121,-17.1613],[-39.1175,-16.8925],[-39.1416,-16.7615],[-39.1038,-16.6981],[-39.0621,-16.4358],[-39.0088,-16.3457],[-39.0111,-16.2458],[-38.9484,-16.0924],[-38.8528,-15.8494],[-38.8936,-15.7667],[-38.9349,-15.6654],[-38.9732,-15.3855],[-38.9963,-15.0852],[-39.0274,-14.783],[-39.0622,-14.747],[-39.0343,-14.5153],[-39.0177,-14.4185],[-38.9889,-14.2174],[-38.9288,-13.9068],[-38.9517,-13.8724],[-38.9678,-13.8488],[-38.9722,-13.8424],[-38.9884,-13.7168],[-38.9685,-13.6721],[-38.8911,-13.6405],[-38.9329,-13.546],[-38.8924,-13.4606],[-38.9508,-13.3899],[-38.9188,-13.2136],[-38.7975,-13.1375],[-38.6433,-13.0153],[-38.5856,-13.0127],[-38.4687,-13.0149],[-38.3043,-12.9109],[-38.2802,-12.8807],[-38.0302,-12.5972],[-37.8933,-12.4082],[-37.7699,-12.2387],[-37.6857,-12.099],[-37.5128,-11.7407],[-37.3411,-11.4423],[-37.2602,-11.2896],[-37.1545,-11.1616],[-37.0346,-10.9573],[-36.8527,-10.7442],[-36.6729,-10.6308],[-36.4862,-10.5364],[-36.3959,-10.4969],[-36.3014,-10.3446],[-36.2596,-10.2641],[-36.0315,-10.0508],[-35.9627,-9.9407],[-35.9047,-9.8559],[-35.8553,-9.7883],[-35.7898,-9.7112],[-35.7237,-9.6847],[-35.5585,-9.4875],[-35.5246,-9.4426],[-35.4725,-9.358],[-35.3868,-9.2863],[-35.3391,-9.2307],[-35.2951,-9.1555],[-35.2413,-9.0647],[-35.1527,-8.9139],[-35.1302,-8.8623],[-35.1028,-8.7849],[-35.0878,-8.6908],[-35.0482,-8.6094],[-34.9609,-8.3667],[-34.9286,-8.2253],[-34.9088,-8.1551],[-34.8605,-8.0445],[-34.828,-7.9591],[-34.8411,-7.8451],[-34.8451,-7.8164],[-34.8482,-7.6878],[-34.8339,-7.5486],[-34.8027,-7.3879],[-34.8058,-7.2445],[-34.8424,-7.056],[-34.859,-7.0297],[-34.8691,-6.9781],[-34.8987,-6.8659],[-34.9248,-6.7676],[-34.9315,-6.7211],[-34.965,-6.6029],[-34.9685,-6.4872],[-35.0319,-6.3108],[-35.0334,-6.2864],[-35.0939,-6.1834],[-35.0978,-6.1398],[-35.121,-5.9817],[-35.1541,-5.8978],[-35.2036,-5.7432],[-35.2271,-5.6121],[-35.2558,-5.5169],[-35.326,-5.3813],[-35.3824,-5.27],[-35.4895,-5.157],[-35.6171,-5.114],[-35.7909,-5.0774],[-35.9083,-5.0595],[-36.0375,-5.0515],[-36.0995,-5.0772],[-36.3083,-5.1021],[-36.4068,-5.0807],[-36.7156,-5.0809],[-36.8557,-4.9723],[-36.96,-4.9186],[-37.1386,-4.9479],[-37.221,-4.8814],[-37.2527,-4.8314],[-37.3259,-4.7003],[-37.5404,-4.6447],[-37.6031,-4.6173],[-37.7695,-4.4264],[-37.8451,-4.3817],[-38.1477,-4.1021],[-38.2233,-4.0072],[-38.4018,-3.8238],[-38.4638,-3.7072],[-38.5876,-3.6964],[-38.6524,-3.6822],[-38.8066,-3.5485],[-38.9321,-3.4654],[-39.0646,-3.4067],[-39.1648,-3.3262],[-39.257,-3.2195],[-39.3793,-3.1833],[-39.5506,-3.0792],[-39.721,-2.9969],[-39.9424,-2.8664],[-40.1853,-2.8117],[-40.3719,-2.8124],[-40.455,-2.8034],[-40.5901,-2.8464],[-40.7604,-2.8488],[-41.1017,-2.9009],[-41.2712,-2.8872],[-41.3227,-2.9213],[-41.4362,-2.906],[-41.6496,-2.8644],[-41.7818,-2.7583],[-41.826,-2.7573],[-41.8344,-2.9156],[-41.7967,-2.9606],[-41.8691,-3.0603],[-41.9798,-3.216],[-41.9856,-3.2225],[-42.1236,-3.2668],[-42.1258,-3.3464],[-42.2017,-3.4313],[-42.2727,-3.4447],[-42.3999,-3.4748],[-42.4703,-3.4838],[-42.4964,-3.4459],[-42.5627,-3.5594],[-42.6167,-3.6107],[-42.6331,-3.6321],[-42.6835,-3.6945],[-42.6715,-3.7916],[-42.7217,-3.8844],[-42.7906,-3.9791],[-42.856,-4.0794],[-42.9428,-4.1673],[-42.9864,-4.2205],[-42.9643,-4.3607],[-42.9486,-4.3855],[-42.8501,-4.498],[-42.9531,-4.6874],[-42.8927,-4.888],[-42.8898,-4.8947],[-42.799,-5.1897],[-42.8158,-5.318],[-42.9684,-5.4535],[-43.0042,-5.5427],[-43.0949,-5.6149],[-43.0751,-5.865],[-43.0964,-5.9097],[-43.0491,-6.1016],[-42.9784,-6.1385],[-42.8473,-6.2782],[-42.8864,-6.5046],[-42.9151,-6.648],[-42.9928,-6.7487],[-43.2479,-6.7677],[-43.3912,-6.8342],[-43.4546,-6.846],[-43.4886,-6.8215],[-43.6375,-6.7196],[-43.7538,-6.7035],[-43.9305,-6.7711],[-44.1163,-6.8058],[-44.2493,-7.0005],[-44.276,-7.0581],[-44.3129,-7.1186],[-44.3861,-7.1209],[-44.5653,-7.2287],[-44.6904,-7.3958],[-44.8173,-7.3615],[-44.9853,-7.481],[-44.9893,-7.4824],[-45.0856,-7.5023],[-45.3407,-7.5818],[-45.4558,-7.67],[-45.5383,-7.8616],[-45.5208,-7.8873],[-45.5837,-8.1569],[-45.6636,-8.2505],[-45.7064,-8.3876],[-45.8408,-8.7158],[-45.9384,-8.7868],[-45.9951,-8.927],[-45.9362,-9.0383],[-45.8937,-9.3426],[-45.7911,-9.4828],[-45.8419,-9.5629],[-45.8297,-9.6799],[-45.866,-9.8716],[-45.8425,-9.9395],[-45.9463,-10.2585],[-46.0124,-10.2507],[-45.9109,-10.3711],[-45.8967,-10.2643],[-45.744,-10.24],[-45.7235,-10.1554],[-45.6993,-10.2586],[-45.7982,-10.3232],[-45.8202,-10.4561],[-46.1276,-10.6206],[-46.2062,-10.8005],[-46.2605,-10.812],[-46.2673,-10.9348],[-46.3416,-10.939],[-46.553,-11.2654],[-46.5599,-11.3716]]]}},{"type":"Feature","properties":{"id":"sudesteCentroOeste","nome":"Sudeste/Centro-Oeste","sigla":"SE-CO","ufsIbge":["11","12","31","32","33","35","50","51","52","53"]},"geometry":{"type":"MultiPolygon","coordinates":[[[[-73.9833,-7.5662],[-73.8217,-7.7175],[-73.6935,-7.7709],[-73.704,-7.8726],[-73.7672,-7.8609],[-73.7288,-7.9691],[-73.6322,-8.059],[-73.537,-8.3455],[-73.3321,-8.4754],[-73.344,-8.6021],[-73.128,-8.7712],[-73.0562,-8.9069],[-72.9948,-8.9198],[-72.9402,-9.069],[-73.1008,-9.3042],[-73.2119,-9.4117],[-72.7197,-9.4117],[-72.518,-9.4916],[-72.3404,-9.5087],[-72.2529,-9.6228],[-72.2709,-9.7448],[-72.1529,-9.7968],[-72.1805,-10],[-71.3774,-10],[-71.2108,-9.9664],[-71.0777,-9.8277],[-70.9977,-9.8184],[-70.8688,-9.6646],[-70.7996,-9.6425],[-70.5698,-9.4322],[-70.5056,-9.4222],[-70.598,-9.6065],[-70.5247,-9.7153],[-70.6206,-9.8323],[-70.6206,-10.0793],[-70.6205,-10.425],[-70.6209,-10.7055],[-70.621,-10.9996],[-70.5301,-10.9348],[-70.4247,-11.0378],[-70.3022,-11.0688],[-70.161,-11.0426],[-69.9339,-10.9212],[-69.7357,-10.9745],[-69.4235,-10.9266],[-69.2326,-10.94],[-68.9121,-11.0217],[-68.7486,-11.0187],[-68.7161,-11.1456],[-68.543,-11.1114],[-68.3882,-11.0406],[-68.2394,-10.9578],[-68.0022,-10.6484],[-67.8641,-10.6408],[-67.7046,-10.7004],[-67.5673,-10.5095],[-67.3108,-10.3774],[-67.316,-10.3187],[-67.1778,-10.3394],[-67.0023,-10.2297],[-66.8986,-10.1114],[-66.6269,-9.898],[-66.2133,-9.8343],[-66.152,-9.7856],[-65.9821,-9.8088],[-65.8859,-9.7525],[-65.7042,-9.7638],[-65.5541,-9.832],[-65.4434,-9.6693],[-65.3569,-9.7202],[-65.2887,-9.8657],[-65.333,-9.9443],[-65.2888,-10.2199],[-65.3918,-10.3744],[-65.3815,-10.4291],[-65.4297,-10.4809],[-65.4051,-10.6406],[-65.3436,-10.6996],[-65.3625,-10.8016],[-65.2756,-10.8712],[-65.2509,-10.9845],[-65.3635,-11.1473],[-65.3049,-11.5016],[-65.2119,-11.5305],[-65.2048,-11.7495],[-65.0905,-11.7078],[-65.0289,-11.9976],[-64.8396,-12.0107],[-64.6984,-12.1036],[-64.7129,-12.1736],[-64.5946,-12.2157],[-64.5128,-12.2229],[-64.5131,-12.3438],[-64.4062,-12.447],[-64.2345,-12.4555],[-63.9634,-12.5297],[-63.8873,-12.4473],[-63.6848,-12.4531],[-63.4372,-12.5644],[-63.2994,-12.6818],[-63.0906,-12.636],[-63.0071,-12.8396],[-62.8922,-12.8588],[-62.7944,-12.9952],[-62.6607,-12.9695],[-62.6126,-13.0413],[-62.4177,-13.1189],[-62.2785,-13.1555],[-62.2148,-13.1113],[-62.1152,-13.1637],[-62.1157,-13.2585],[-61.8874,-13.4408],[-61.8171,-13.5274],[-61.5789,-13.5099],[-61.4699,-13.5553],[-61.2483,-13.4963],[-61.1943,-13.5364],[-61.009,-13.5064],[-60.919,-13.5483],[-60.8798,-13.6175],[-60.7093,-13.693],[-60.4727,-13.7937],[-60.4509,-13.9364],[-60.3831,-13.9929],[-60.4806,-14.0958],[-60.4536,-14.3141],[-60.2736,-14.621],[-60.245,-15.0975],[-60.5757,-15.0975],[-60.2395,-15.4746],[-60.1741,-16.2669],[-59.4692,-16.2796],[-58.7857,-16.308],[-58.4306,-16.3227],[-58.3222,-16.2664],[-58.3441,-16.5184],[-58.4362,-16.5929],[-58.4768,-16.9367],[-58.392,-17.0401],[-58.3989,-17.184],[-58.2467,-17.3552],[-57.9964,-17.5156],[-57.8834,-17.4495],[-57.7523,-17.5645],[-57.783,-17.6368],[-57.7113,-17.7287],[-57.7214,-17.829],[-57.5741,-18.1316],[-57.4548,-18.2334],[-57.5583,-18.2407],[-57.7667,-18.8995],[-57.7104,-19.0347],[-57.7833,-19.0351],[-58.1314,-19.7594],[-57.8591,-19.9717],[-58.1686,-20.1658],[-58.0966,-20.2539],[-58.0732,-20.388],[-57.9965,-20.4434],[-58.0131,-20.6083],[-57.9582,-20.7049],[-57.8647,-20.7464],[-57.9595,-20.7979],[-57.8594,-20.8249],[-57.9289,-20.8952],[-57.8337,-20.9363],[-57.8664,-21.0393],[-57.8547,-21.3169],[-57.9616,-21.5624],[-57.8852,-21.6836],[-57.9698,-21.8443],[-57.9162,-21.8763],[-57.9951,-22.0887],[-57.7477,-22.139],[-57.6101,-22.0954],[-57.5168,-22.1736],[-57.3202,-22.2456],[-57.0497,-22.232],[-56.844,-22.3011],[-56.5691,-22.2066],[-56.5034,-22.0974],[-56.3929,-22.075],[-56.3455,-22.1813],[-56.2091,-22.2782],[-55.8431,-22.2871],[-55.7667,-22.3842],[-55.7236,-22.5518],[-55.6136,-22.6928],[-55.6659,-22.8525],[-55.5968,-23.1526],[-55.5391,-23.2412],[-55.5045,-23.3785],[-55.5604,-23.4831],[-55.5304,-23.6278],[-55.4363,-23.7168],[-55.4463,-23.9169],[-55.4029,-23.9742],[-55.262,-23.9917],[-55.0623,-23.9933],[-54.6838,-23.8305],[-54.4268,-23.9311],[-54.2862,-24.0682],[-54.169,-23.999],[-54.084,-23.865],[-54.0836,-23.8055],[-54.0511,-23.6872],[-54.0306,-23.6282],[-53.9602,-23.4434],[-53.7622,-23.3593],[-53.7149,-23.2834],[-53.6366,-23.125],[-53.634,-23.0034],[-53.5468,-22.8901],[-53.4104,-22.8139],[-53.3274,-22.7646],[-53.24,-22.7335],[-53.1279,-22.6523],[-53.1052,-22.6219],[-53.0385,-22.6184],[-53.0117,-22.5988],[-52.9247,-22.5656],[-52.7829,-22.6021],[-52.7643,-22.6086],[-52.5893,-22.5661],[-52.5378,-22.616],[-52.4457,-22.6083],[-52.4214,-22.6106],[-52.29,-22.6282],[-52.1828,-22.6554],[-52.1523,-22.5692],[-52.1356,-22.5269],[-52.0329,-22.5392],[-52.0284,-22.5395],[-51.9015,-22.6019],[-51.8902,-22.6132],[-51.8558,-22.6317],[-51.7182,-22.669],[-51.6305,-22.6579],[-51.6279,-22.6582],[-51.5172,-22.69],[-51.4464,-22.653],[-51.3331,-22.6671],[-51.2982,-22.6735],[-51.2137,-22.7237],[-51.176,-22.7388],[-51.0044,-22.7937],[-50.9787,-22.7826],[-50.9277,-22.7977],[-50.8236,-22.8661],[-50.7959,-22.9512],[-50.6373,-22.9069],[-50.5772,-22.904],[-50.5268,-22.9348],[-50.3592,-22.9161],[-50.3402,-22.9481],[-50.2039,-22.9528],[-50.1331,-22.9399],[-50.0528,-22.9055],[-49.9742,-22.9545],[-49.9725,-22.9585],[-49.8337,-23.0659],[-49.8194,-23.077],[-49.8095,-23.0892],[-49.7165,-23.1484],[-49.6271,-23.2818],[-49.6379,-23.3495],[-49.5981,-23.4582],[-49.6242,-23.5233],[-49.6021,-23.6521],[-49.5747,-23.676],[-49.5597,-23.7936],[-49.608,-23.8394],[-49.5358,-23.9282],[-49.5223,-23.9166],[-49.4872,-24.0246],[-49.3366,-24.1376],[-49.3507,-24.2208],[-49.2542,-24.3179],[-49.2535,-24.405],[-49.2524,-24.4339],[-49.2505,-24.4454],[-49.316,-24.5555],[-49.312,-24.6635],[-49.2079,-24.7009],[-49.1579,-24.6719],[-49.1298,-24.6819],[-48.9123,-24.674],[-48.8108,-24.675],[-48.6012,-24.6691],[-48.5381,-24.7262],[-48.5664,-24.9168],[-48.5981,-25.0033],[-48.5563,-25.0843],[-48.4119,-24.9804],[-48.3241,-25.0367],[-48.2397,-24.9914],[-48.0961,-25.3089],[-47.9141,-25.1594],[-47.9095,-25.0529],[-47.7315,-24.8806],[-47.4153,-24.6756],[-47.0779,-24.4482],[-46.8976,-24.2529],[-46.7094,-24.1441],[-46.6044,-24.0897],[-46.3919,-23.9986],[-46.3551,-23.9711],[-46.3063,-23.9931],[-46.1848,-23.9922],[-46.1332,-23.8565],[-45.8424,-23.7582],[-45.5551,-23.795],[-45.5146,-23.8421],[-45.3963,-23.8081],[-45.427,-23.7084],[-45.4066,-23.6239],[-45.2767,-23.5783],[-45.0669,-23.4926],[-44.9082,-23.3342],[-44.8442,-23.387],[-44.7242,-23.3676],[-44.583,-23.3576],[-44.5358,-23.2921],[-44.6527,-23.1884],[-44.7212,-23.2018],[-44.6686,-23.0542],[-44.5211,-23.0273],[-44.3449,-22.922],[-44.347,-23.0302],[-44.1657,-23.0339],[-44.0059,-22.9421],[-43.8806,-22.9158],[-43.796,-22.9171],[-43.5624,-23.0532],[-43.2855,-23.015],[-43.1615,-22.9053],[-43.2728,-22.8098],[-43.2146,-22.7277],[-43.0389,-22.6926],[-43.0259,-22.7261],[-43.0266,-22.7431],[-43.1034,-22.8559],[-43.1104,-22.9536],[-43.0138,-22.9768],[-42.6412,-22.9375],[-42.3816,-22.9357],[-42.2812,-22.9395],[-42.0373,-22.9331],[-41.9694,-22.8228],[-41.9735,-22.7296],[-41.9914,-22.5981],[-41.9792,-22.5625],[-41.8178,-22.417],[-41.6891,-22.3],[-41.5424,-22.2346],[-41.1338,-22.0955],[-41.004,-22.0211],[-40.9818,-21.9111],[-41.0481,-21.6178],[-41.0689,-21.4976],[-40.961,-21.3011],[-40.9261,-21.1902],[-40.8092,-20.9958],[-40.7589,-20.8657],[-40.7012,-20.8346],[-40.5709,-20.7652],[-40.3772,-20.5355],[-40.2744,-20.32],[-40.2149,-20.2426],[-40.1918,-20.0545],[-40.1545,-20.0121],[-40.0548,-19.8148],[-39.9117,-19.687],[-39.8108,-19.6496],[-39.6891,-19.3049],[-39.7193,-19.097],[-39.7465,-18.7062],[-39.7282,-18.5183],[-39.6678,-18.3372],[-39.9118,-18.179],[-40.2204,-17.9816],[-40.2224,-17.9804],[-40.2119,-17.8949],[-40.2237,-17.7343],[-40.2402,-17.7349],[-40.3441,-17.6156],[-40.4145,-17.6101],[-40.483,-17.4885],[-40.5195,-17.4474],[-40.6047,-17.3562],[-40.5478,-17.2837],[-40.5787,-17.1496],[-40.4923,-16.8874],[-40.4336,-16.8874],[-40.4077,-16.8987],[-40.4013,-16.8902],[-40.2816,-16.9012],[-40.307,-16.6968],[-40.3132,-16.6786],[-40.2755,-16.5734],[-40.1579,-16.5795],[-40.1102,-16.4493],[-40.0172,-16.3478],[-39.9178,-16.2843],[-39.8568,-16.1138],[-39.9148,-16],[-40.0044,-16.0018],[-40.1275,-15.9071],[-40.2357,-15.8035],[-40.425,-15.8057],[-40.45,-15.7616],[-40.5198,-15.7976],[-40.6449,-15.7289],[-40.7006,-15.6673],[-40.7677,-15.7141],[-40.8168,-15.6476],[-41.1425,-15.772],[-41.3302,-15.7433],[-41.3422,-15.6386],[-41.3619,-15.495],[-41.3643,-15.493],[-41.4561,-15.4103],[-41.7599,-15.138],[-41.8023,-15.1003],[-41.8103,-15.1014],[-41.9534,-15.1757],[-42.0485,-15.1707],[-42.1733,-15.086],[-42.2656,-15.125],[-42.2776,-15.1137],[-42.479,-15.0142],[-42.5157,-14.9829],[-42.6187,-14.9397],[-42.8721,-14.7647],[-42.9389,-14.708],[-43.175,-14.6511],[-43.3112,-14.6697],[-43.487,-14.7903],[-43.5308,-14.8155],[-43.531,-14.8154],[-43.7122,-14.7153],[-43.8835,-14.6525],[-43.8812,-14.5624],[-43.8184,-14.3877],[-43.7832,-14.3392],[-43.9696,-14.274],[-44.0457,-14.2838],[-44.296,-14.2532],[-44.4118,-14.2816],[-44.5572,-14.337],[-44.7414,-14.4671],[-44.8332,-14.4998],[-44.877,-14.5992],[-45.0403,-14.6805],[-45.0958,-14.753],[-45.2056,-14.7447],[-45.3057,-14.8337],[-45.6169,-15.0141],[-45.7398,-15.1204],[-45.9717,-15.1539],[-46.0771,-15.2647],[-45.9661,-14.9656],[-46.0376,-14.8747],[-46.0394,-14.8753],[-46.0251,-14.6781],[-46.021,-14.6699],[-45.9889,-14.6558],[-46.0001,-14.4466],[-45.9072,-14.3552],[-46.0601,-14.2319],[-46.1841,-14.1569],[-46.227,-14.049],[-46.2121,-14.0101],[-46.2642,-13.9474],[-46.2357,-13.7081],[-46.1627,-13.6036],[-46.2475,-13.5787],[-46.209,-13.4656],[-46.2485,-13.436],[-46.0683,-13.2954],[-46.1032,-13.2575],[-46.2925,-13.3169],[-46.3277,-13.2529],[-46.2987,-13.0638],[-46.113,-12.918],[-46.3644,-12.9907],[-46.418,-12.8224],[-46.4459,-12.9358],[-46.4546,-12.9712],[-46.6354,-12.9699],[-46.7506,-12.9692],[-46.8548,-13.0676],[-47.3929,-13.2624],[-47.5687,-13.1169],[-47.6651,-13.2184],[-47.6223,-13.3687],[-47.6797,-13.4682],[-47.7982,-13.329],[-47.9668,-13.315],[-48.0745,-13.239],[-48.1699,-13.3003],[-48.1437,-13.1525],[-48.4589,-13.2804],[-48.5161,-13.1391],[-48.5801,-13.3133],[-48.5759,-13.1242],[-48.6447,-13.011],[-48.8703,-12.8033],[-48.8798,-12.8171],[-48.9762,-12.9579],[-49.1177,-12.7901],[-49.2377,-12.8838],[-49.3556,-13.1561],[-49.3683,-13.2723],[-49.9088,-12.9751],[-50.1852,-12.8936],[-50.3108,-12.7916],[-50.2448,-12.5975],[-50.1934,-12.5638],[-50.2152,-12.482],[-50.1418,-12.3954],[-50.3055,-12.4924],[-50.4342,-12.6494],[-50.511,-12.8609],[-50.6227,-12.8197],[-50.6839,-12.6481],[-50.6236,-12.4553],[-50.6437,-12.223],[-50.6814,-12.2169],[-50.6822,-11.9909],[-50.6393,-11.8846],[-50.7173,-11.7274],[-50.6701,-11.5816],[-50.7389,-11.5445],[-50.6999,-11.3131],[-50.6095,-11.0674],[-50.6326,-10.9319],[-50.5706,-10.7525],[-50.6035,-10.6609],[-50.6033,-10.6598],[-50.5414,-10.6093],[-50.4737,-10.4049],[-50.4181,-10.3546],[-50.3983,-10.1555],[-50.3026,-10.0354],[-50.2248,-9.8412],[-50.846,-9.8006],[-51.3043,-9.7729],[-52.2567,-9.7077],[-52.6193,-9.6823],[-53.1334,-9.6452],[-53.5891,-9.611],[-54.1068,-9.5719],[-54.6135,-9.5358],[-54.9956,-9.5053],[-55.8672,-9.4343],[-56.1565,-9.4104],[-56.2723,-9.4008],[-56.6719,-9.3674],[-56.7543,-9.4064],[-56.8201,-9.2463],[-56.9955,-9.2338],[-57.0598,-9.1824],[-57.0392,-9.0983],[-57.2038,-8.9208],[-57.4162,-8.859],[-57.4175,-8.7926],[-57.5929,-8.7565],[-57.6334,-8.5268],[-57.6866,-8.407],[-57.6417,-8.2199],[-57.8319,-7.9615],[-57.8967,-7.6779],[-58.0614,-7.3952],[-58.1371,-7.3561],[-58.2131,-7.4585],[-58.2022,-7.6209],[-58.2941,-7.7715],[-58.3782,-7.8274],[-58.2864,-8.0885],[-58.3149,-8.3231],[-58.4178,-8.4895],[-58.3895,-8.5948],[-58.4373,-8.7034],[-58.3284,-8.7122],[-58.4419,-8.7987],[-59.1274,-8.8033],[-60.4202,-8.7966],[-61.5831,-8.7987],[-61.7133,-8.6879],[-61.8365,-8.7327],[-61.903,-8.8629],[-61.9902,-8.8727],[-62.0311,-8.7997],[-62.125,-8.8017],[-62.1884,-8.5906],[-62.2689,-8.5758],[-62.2895,-8.6391],[-62.3661,-8.4936],[-62.3608,-8.3985],[-62.4655,-8.3397],[-62.5185,-8.3847],[-62.5619,-8.284],[-62.655,-8.2291],[-62.6923,-8.0929],[-62.8666,-7.9759],[-63.6212,-7.9765],[-63.6218,-8.0296],[-63.7486,-8.2079],[-63.7912,-8.3332],[-63.8708,-8.2888],[-63.9441,-8.3312],[-63.9732,-8.4784],[-63.9232,-8.5593],[-64.0355,-8.6936],[-64.1431,-8.743],[-64.1418,-8.9451],[-64.3113,-8.9965],[-64.3234,-8.9289],[-64.5789,-8.9884],[-64.6111,-9.0165],[-64.8078,-8.9856],[-64.9399,-9.1246],[-64.9197,-9.2203],[-65.0535,-9.4021],[-65.1429,-9.4468],[-65.2118,-9.279],[-65.2704,-9.2636],[-65.3935,-9.3396],[-65.4402,-9.3117],[-65.4321,-9.4586],[-65.5881,-9.4138],[-65.6794,-9.4514],[-65.73,-9.5631],[-65.8251,-9.5301],[-65.9703,-9.4132],[-66.1736,-9.4344],[-66.4089,-9.4069],[-66.3924,-9.5005],[-66.5006,-9.6336],[-66.6094,-9.6649],[-66.8103,-9.818],[-67.135,-9.6759],[-67.3255,-9.5925],[-67.326,-9.5923],[-67.5169,-9.5609],[-67.9768,-9.3527],[-68.2199,-9.2428],[-68.6472,-9.0494],[-68.9213,-8.8143],[-69.213,-8.5644],[-69.4443,-8.3665],[-69.8017,-8.0611],[-70.055,-7.8451],[-70.5152,-7.7924],[-71.0885,-7.7263],[-71.3817,-7.6923],[-71.9454,-7.6268],[-72.1695,-7.6006],[-72.5848,-7.552],[-72.9003,-7.4377],[-73.7382,-7.1347],[-73.8016,-7.1118],[-73.6989,-7.2957],[-73.8765,-7.3823],[-73.9671,-7.3598],[-73.9193,-7.4653],[-73.9833,-7.5662]],[[-51.4195,-14.9904],[-51.3499,-14.9903],[-51.3413,-14.9805],[-51.3474,-14.9877],[-51.3531,-14.9939],[-51.4195,-14.9904]],[[-51.3387,-14.9751],[-51.3331,-14.9701],[-51.3071,-14.981],[-51.3387,-14.9751]]],[[[-45.4443,-23.9341],[-45.2485,-23.9032],[-45.2904,-23.8691],[-45.2303,-23.778],[-45.3415,-23.7278],[-45.4443,-23.9341]]],[[[-44.373,-23.1682],[-44.3498,-23.2155],[-44.14,-23.167],[-44.2334,-23.0907],[-44.373,-23.1682]]],[[[-43.9733,-23.0453],[-43.9543,-23.087],[-43.793,-23.0639],[-43.6678,-23.0531],[-43.6666,-23.0426],[-43.7931,-23.0615],[-43.9733,-23.0453]]]]}},{"type":"Feature","properties":{"id":"sul","nome":"Sul","sigla":"S","ufsIbge":["41","42","43"]},"geometry":{"type":"Polygon","coordinates":[[[-57.5941,-30.179],[-57.568,-30.2522],[-57.3894,-30.3025],[-57.2042,-30.2851],[-57.1152,-30.1137],[-56.8504,-30.0889],[-56.6581,-30.2013],[-56.5461,-30.3606],[-56.4622,-30.3845],[-56.3781,-30.5015],[-56.2899,-30.5323],[-56.1877,-30.6047],[-56.1501,-30.7055],[-56.0236,-30.7857],[-56.0111,-31.0816],[-55.8708,-31.0716],[-55.6662,-30.954],[-55.5786,-30.8329],[-55.437,-31.0047],[-55.3514,-31.0376],[-55.2468,-31.2522],[-55.0745,-31.3321],[-55.0358,-31.2839],[-54.8365,-31.4419],[-54.7013,-31.4357],[-54.5869,-31.4565],[-54.4729,-31.5704],[-54.4546,-31.6528],[-54.088,-31.9312],[-53.9475,-31.9546],[-53.7256,-32.0984],[-53.6765,-32.2381],[-53.644,-32.3849],[-53.4369,-32.5482],[-53.1764,-32.6585],[-52.9974,-32.5912],[-52.968,-32.4905],[-52.8024,-32.447],[-52.7242,-32.37],[-52.8211,-32.3341],[-52.7189,-32.1542],[-52.6229,-32.1456],[-52.6884,-32.3195],[-52.6023,-32.4606],[-52.6209,-32.6379],[-52.7234,-32.8339],[-52.8322,-32.915],[-53.0016,-32.7975],[-53.1239,-32.7938],[-53.1744,-33.0035],[-53.2602,-33.1074],[-53.3253,-33.0652],[-53.4692,-33.2554],[-53.4248,-33.4376],[-53.5078,-33.5311],[-53.5228,-33.6893],[-53.422,-33.7438],[-53.37,-33.7439],[-52.7767,-33.2831],[-52.6239,-33.1042],[-52.4952,-32.8672],[-52.4229,-32.6288],[-52.293,-32.3383],[-52.0972,-32.1617],[-52.1148,-31.942],[-52.2566,-31.8498],[-52.2236,-31.7889],[-52.1524,-31.6993],[-52.036,-31.6958],[-52.0135,-31.5972],[-52.0102,-31.5009],[-51.9195,-31.3108],[-51.8117,-31.2857],[-51.6191,-31.269],[-51.6287,-31.153],[-51.5378,-31.115],[-51.442,-31.0874],[-51.4993,-30.9758],[-51.4488,-30.8722],[-51.3727,-30.8725],[-51.3809,-30.6435],[-51.3188,-30.6461],[-51.2654,-30.4798],[-51.1358,-30.4368],[-51.2101,-30.3013],[-51.3283,-30.2265],[-51.3012,-30.0542],[-51.2719,-30.039],[-51.2327,-30.1827],[-51.0629,-30.2596],[-51.0556,-30.392],[-50.93,-30.4358],[-50.9148,-30.3264],[-50.6561,-30.286],[-50.6208,-30.1984],[-50.5426,-30.2523],[-50.5827,-30.4901],[-50.7295,-30.3681],[-50.6864,-30.5008],[-50.6901,-30.7069],[-50.7538,-30.8189],[-50.9668,-30.8961],[-50.9546,-31.0032],[-51.179,-31.1342],[-51.1575,-31.2847],[-51.2375,-31.4574],[-51.3611,-31.532],[-51.4282,-31.492],[-51.6587,-31.7669],[-51.8377,-31.801],[-51.9028,-31.8705],[-52.0981,-31.8359],[-52.0152,-31.9224],[-52.0772,-32.1432],[-51.8309,-31.9192],[-51.4272,-31.6956],[-51.186,-31.5044],[-50.8421,-31.19],[-50.7672,-31.1101],[-50.3343,-30.5008],[-50.2519,-30.3049],[-50.2241,-30.2363],[-50.1703,-30.0971],[-50.1192,-29.9762],[-50.0753,-29.8845],[-50.0637,-29.86],[-50.0176,-29.7725],[-49.9337,-29.6251],[-49.9222,-29.6072],[-49.8035,-29.4436],[-49.7129,-29.3256],[-49.6451,-29.2384],[-49.516,-29.0957],[-49.3764,-28.9561],[-49.2901,-28.8832],[-49.1879,-28.8022],[-48.858,-28.6157],[-48.7465,-28.5051],[-48.7063,-28.3414],[-48.6343,-28.113],[-48.6209,-27.9449],[-48.587,-27.9044],[-48.5766,-27.844],[-48.5176,-27.7815],[-48.3706,-27.4498],[-48.4172,-27.3806],[-48.5263,-27.4083],[-48.5948,-27.3161],[-48.6027,-27.2179],[-48.5784,-27.2115],[-48.4953,-27.1985],[-48.508,-27.1105],[-48.5856,-27.1449],[-48.5891,-27.061],[-48.6283,-26.9601],[-48.6422,-26.9127],[-48.6212,-26.8262],[-48.6613,-26.7712],[-48.6819,-26.7184],[-48.6648,-26.5809],[-48.6507,-26.5473],[-48.5943,-26.4522],[-48.4931,-26.2186],[-48.5694,-26.1677],[-48.5953,-25.9768],[-48.5496,-25.8523],[-48.4771,-25.7137],[-48.3583,-25.5859],[-48.3097,-25.4933],[-48.214,-25.473],[-48.0961,-25.3089],[-48.2397,-24.9914],[-48.3241,-25.0367],[-48.4119,-24.9804],[-48.5563,-25.0843],[-48.5981,-25.0033],[-48.5664,-24.9168],[-48.5381,-24.7262],[-48.6012,-24.6691],[-48.8108,-24.675],[-48.9123,-24.674],[-49.1298,-24.6819],[-49.1579,-24.6719],[-49.2079,-24.7009],[-49.312,-24.6635],[-49.316,-24.5555],[-49.2505,-24.4454],[-49.2524,-24.4339],[-49.2535,-24.405],[-49.2542,-24.3179],[-49.3507,-24.2208],[-49.3366,-24.1376],[-49.4872,-24.0246],[-49.5223,-23.9166],[-49.5358,-23.9282],[-49.608,-23.8394],[-49.5597,-23.7936],[-49.5747,-23.676],[-49.6021,-23.6521],[-49.6242,-23.5233],[-49.5981,-23.4582],[-49.6379,-23.3495],[-49.6271,-23.2818],[-49.7165,-23.1484],[-49.8095,-23.0892],[-49.8194,-23.077],[-49.8337,-23.0659],[-49.9725,-22.9585],[-49.9742,-22.9545],[-50.0528,-22.9055],[-50.1331,-22.9399],[-50.2039,-22.9528],[-50.3402,-22.9481],[-50.3592,-22.9161],[-50.5268,-22.9348],[-50.5772,-22.904],[-50.6373,-22.9069],[-50.7959,-22.9512],[-50.8236,-22.8661],[-50.9277,-22.7977],[-50.9787,-22.7826],[-51.0044,-22.7937],[-51.176,-22.7388],[-51.2137,-22.7237],[-51.2982,-22.6735],[-51.3331,-22.6671],[-51.4464,-22.653],[-51.5172,-22.69],[-51.6279,-22.6582],[-51.6305,-22.6579],[-51.7182,-22.669],[-51.8558,-22.6317],[-51.8902,-22.6132],[-51.9015,-22.6019],[-52.0284,-22.5395],[-52.0329,-22.5392],[-52.1356,-22.5269],[-52.1523,-22.5692],[-52.1828,-22.6554],[-52.29,-22.6282],[-52.4214,-22.6106],[-52.4457,-22.6083],[-52.5378,-22.616],[-52.5893,-22.5661],[-52.7643,-22.6086],[-52.7829,-22.6021],[-52.9247,-22.5656],[-53.0117,-22.5988],[-53.0385,-22.6184],[-53.1052,-22.6219],[-53.1279,-22.6523],[-53.24,-22.7335],[-53.3274,-22.7646],[-53.4104,-22.8139],[-53.5468,-22.8901],[-53.634,-23.0034],[-53.6366,-23.125],[-53.7149,-23.2834],[-53.7622,-23.3593],[-53.9602,-23.4434],[-54.0306,-23.6282],[-54.0511,-23.6872],[-54.0836,-23.8055],[-54.084,-23.865],[-54.169,-23.999],[-54.2862,-24.0682],[-54.3456,-24.157],[-54.2616,-24.375],[-54.2956,-24.4276],[-54.3185,-24.5907],[-54.3269,-24.6595],[-54.3323,-24.6945],[-54.3899,-24.7773],[-54.4572,-25.0393],[-54.4249,-25.1533],[-54.4736,-25.2115],[-54.6191,-25.4507],[-54.5935,-25.5922],[-54.4453,-25.6657],[-54.2963,-25.5576],[-54.1764,-25.5844],[-54.144,-25.521],[-53.9912,-25.5861],[-53.8498,-25.6908],[-53.8427,-25.7707],[-53.8189,-25.9123],[-53.8368,-25.9699],[-53.7342,-26.0428],[-53.6721,-26.1762],[-53.6514,-26.2068],[-53.639,-26.2508],[-53.6888,-26.4286],[-53.6884,-26.4433],[-53.7209,-26.5378],[-53.7307,-26.6007],[-53.7144,-26.7508],[-53.6773,-26.8439],[-53.6754,-26.8928],[-53.6717,-26.9428],[-53.7327,-27.0042],[-53.8371,-27.1684],[-53.9466,-27.1513],[-54.055,-27.264],[-54.1115,-27.3025],[-54.1866,-27.2649],[-54.2174,-27.385],[-54.2839,-27.4478],[-54.4114,-27.4053],[-54.4746,-27.4812],[-54.5894,-27.4582],[-54.632,-27.5457],[-54.7233,-27.5635],[-54.8171,-27.5356],[-54.9029,-27.6989],[-54.9993,-27.7905],[-55.0517,-27.8524],[-55.2027,-27.8579],[-55.2778,-27.9329],[-55.3398,-27.966],[-55.3755,-28.034],[-55.4384,-28.0863],[-55.7712,-28.2415],[-55.6692,-28.3408],[-55.6922,-28.4164],[-55.8506,-28.3554],[-55.884,-28.4792],[-56.0232,-28.5228],[-56.0024,-28.5783],[-56.1942,-28.7752],[-56.2997,-28.8081],[-56.3233,-28.9247],[-56.4304,-29.0795],[-56.5888,-29.1198],[-56.6645,-29.295],[-56.78,-29.42],[-56.9711,-29.6434],[-57.1319,-29.7702],[-57.2354,-29.7808],[-57.3297,-29.8876],[-57.3281,-29.9719],[-57.4646,-30.1103],[-57.5941,-30.179]],[[-53.4309,-26.2821],[-53.4308,-26.282],[-53.4304,-26.2819],[-53.4309,-26.2821]]]}}]}